[{"OBJECT_NAME":"STARLINK-11131 [DTC]","OBJECT_ID":"2024-091D","EPOCH":"2025-07-30T04:21:00.297216","MEAN_MOTION":15.69708294,"ECCENTRICITY":0.0001154,"INCLINATION":53.1588,"RA_OF_ASC_NODE":223.3164,"ARG_OF_PERICENTER":83.3863,"MEAN_ANOMALY":276.7286,"EPHEMERIS_TYPE":0,"CLASSIFICATION_TYPE":"U","NORAD_CAT_ID":59756,"ELEMENT_SET_NO":999,"REV_AT_EPOCH":7058,"BSTAR":6.7687e-6,"MEAN_MOTION_DOT":2.31e-6,"MEAN_MOTION_DDOT":0},{"OBJECT_NAME":"STARLINK-11114 [DTC]","OBJECT_ID":"2024-091E","EPOCH":"2025-07-29T08:22:03.600192","MEAN_MOTION":15.69704669,"ECCENTRICITY":0.0001678,"INCLINATION":53.1592,"RA_OF_ASC_NODE":227.3842,"ARG_OF_PERICENTER":51.2757,"MEAN_ANOMALY":308.8411,"EPHEMERIS_TYPE":0,"CLASSIFICATION_TYPE":"U","NORAD_CAT_ID":59757,"ELEMENT_SET_NO":999,"REV_AT_EPOCH":7043,"BSTAR":1.03e-6,"MEAN_MOTION_DOT":-4.65e-6,"MEAN_MOTION_DDOT":0},{"OBJECT_NAME":"STARLINK-11105 [DTC]","OBJECT_ID":"2024-091F","EPOCH":"2025-07-30T05:38:32.672832","MEAN_MOTION":15.69799173,"ECCENTRICITY":4.22e-5,"INCLINATION":53.1582,"RA_OF_ASC_NODE":222.9535,"ARG_OF_PERICENTER":81.4709,"MEAN_ANOMALY":278.6356,"EPHEMERIS_TYPE":0,"CLASSIFICATION_TYPE":"U","NORAD_CAT_ID":59758,"ELEMENT_SET_NO":999,"REV_AT_EPOCH":7053,"BSTAR":-0.00015678,"MEAN_MOTION_DOT":-0.00019606,"MEAN_MOTION_DDOT":0},{"OBJECT_NAME":"STARLINK-11097 [DTC]","OBJECT_ID":"2024-091G","EPOCH":"2025-07-30T05:31:29.672256","MEAN_MOTION":15.69708336,"ECCENTRICITY":0.0001103,"INCLINATION":53.1584,"RA_OF_ASC_NODE":222.9004,"ARG_OF_PERICENTER":80.7055,"MEAN_ANOMALY":279.4088,"EPHEMERIS_TYPE":0,"CLASSIFICATION_TYPE":"U","NORAD_CAT_ID":59759,"ELEMENT_SET_NO":999,"REV_AT_EPOCH":7058,"BSTAR":6.677e-6,"MEAN_MOTION_DOT":2.2e-6,"MEAN_MOTION_DDOT":0},{"OBJECT_NAME":"STARLINK-11098 [DTC]","OBJECT_ID":"2024-091H","EPOCH":"2025-07-30T05:24:26.161056","MEAN_MOTION":15.69704737,"ECCENTRICITY":0.00011,"INCLINATION":53.1585,"RA_OF_ASC_NODE":222.8693,"ARG_OF_PERICENTER":87.549,"MEAN_ANOMALY":272.5653,"EPHEMERIS_TYPE":0,"CLASSIFICATION_TYPE":"U","NORAD_CAT_ID":59760,"ELEMENT_SET_NO":999,"REV_AT_EPOCH":7052,"BSTAR":4.8223e-6,"MEAN_MOTION_DOT":-4.0e-8,"MEAN_MOTION_DDOT":0},{"OBJECT_NAME":"STARLINK-11117 [DTC]","OBJECT_ID":"2024-091J","EPOCH":"2025-07-30T05:17:22.143552","MEAN_MOTION":15.69709604,"ECCENTRICITY":0.0001233,"INCLINATION":53.1595,"RA_OF_ASC_NODE":222.8362,"ARG_OF_PERICENTER":85.738,"MEAN_ANOMALY":274.3778,"EPHEMERIS_TYPE":0,"CLASSIFICATION_TYPE":"U","NORAD_CAT_ID":59761,"ELEMENT_SET_NO":999,"REV_AT_EPOCH":7059,"BSTAR":-6.4009e-7,"MEAN_MOTION_DOT":-6.66e-6,"MEAN_MOTION_DDOT":0},{"OBJECT_NAME":"STARLINK-11110 [DTC]","OBJECT_ID":"2024-091K","EPOCH":"2025-07-29T18:28:30.781344","MEAN_MOTION":15.69710959,"ECCENTRICITY":0.0001001,"INCLINATION":53.1582,"RA_OF_ASC_NODE":225.0012,"ARG_OF_PERICENTER":92.7845,"MEAN_ANOMALY":267.3288,"EPHEMERIS_TYPE":0,"CLASSIFICATION_TYPE":"U","NORAD_CAT_ID":59762,"ELEMENT_SET_NO":999,"REV_AT_EPOCH":7050,"BSTAR":-7.4034e-6,"MEAN_MOTION_DOT":-1.485e-5,"MEAN_MOTION_DDOT":0},{"OBJECT_NAME":"STARLINK-11104 [DTC]","OBJECT_ID":"2024-091L","EPOCH":"2025-07-30T05:03:14.211360","MEAN_MOTION":15.69707445,"ECCENTRICITY":0.0001282,"INCLINATION":53.16,"RA_OF_ASC_NODE":222.7698,"ARG_OF_PERICENTER":86.9507,"MEAN_ANOMALY":273.1658,"EPHEMERIS_TYPE":0,"CLASSIFICATION_TYPE":"U","NORAD_CAT_ID":59763,"ELEMENT_SET_NO":999,"REV_AT_EPOCH":7058,"BSTAR":6.4175e-6,"MEAN_MOTION_DOT":1.89e-6,"MEAN_MOTION_DDOT":0},{"OBJECT_NAME":"STARLINK-11111 [DTC]","OBJECT_ID":"2024-091M","EPOCH":"2025-07-29T18:07:19.692192","MEAN_MOTION":15.69705024,"ECCENTRICITY":0.0001515,"INCLINATION":53.16,"RA_OF_ASC_NODE":224.9026,"ARG_OF_PERICENTER":75.978,"MEAN_ANOMALY":284.1407,"EPHEMERIS_TYPE":0,"CLASSIFICATION_TYPE":"U","NORAD_CAT_ID":59764,"ELEMENT_SET_NO":999,"REV_AT_EPOCH":7050,"BSTAR":7.6207e-6,"MEAN_MOTION_DOT":3.34e-6,"MEAN_MOTION_DDOT":0},{"OBJECT_NAME":"STARLINK-11106 [DTC]","OBJECT_ID":"2024-091N","EPOCH":"2025-07-30T04:56:10.495392","MEAN_MOTION":15.69709302,"ECCENTRICITY":0.0001207,"INCLINATION":53.1593,"RA_OF_ASC_NODE":222.7376,"ARG_OF_PERICENTER":91.3577,"MEAN_ANOMALY":268.7579,"EPHEMERIS_TYPE":0,"CLASSIFICATION_TYPE":"U","NORAD_CAT_ID":59765,"ELEMENT_SET_NO":999,"REV_AT_EPOCH":7059,"BSTAR":9.0829e-6,"MEAN_MOTION_DOT":5.12e-6,"MEAN_MOTION_DDOT":0},{"OBJECT_NAME":"STARLINK-31739","OBJECT_ID":"2024-091P","EPOCH":"2025-07-30T01:59:34.262880","MEAN_MOTION":15.3018382,"ECCENTRICITY":0.0001411,"INCLINATION":53.1631,"RA_OF_ASC_NODE":337.9485,"ARG_OF_PERICENTER":102.4496,"MEAN_ANOMALY":257.6662,"EPHEMERIS_TYPE":0,"CLASSIFICATION_TYPE":"U","NORAD_CAT_ID":59766,"ELEMENT_SET_NO":999,"REV_AT_EPOCH":6891,"BSTAR":1.6608e-5,"MEAN_MOTION_DOT":1.32e-6,"MEAN_MOTION_DDOT":0},{"OBJECT_NAME":"STARLINK-31828","OBJECT_ID":"2024-091Q","EPOCH":"2025-07-29T15:23:22.334208","MEAN_MOTION":15.30192032,"ECCENTRICITY":0.0001279,"INCLINATION":53.1617,"RA_OF_ASC_NODE":342.9949,"ARG_OF_PERICENTER":82.1063,"MEAN_ANOMALY":278.0083,"EPHEMERIS_TYPE":0,"CLASSIFICATION_TYPE":"U","NORAD_CAT_ID":59767,"ELEMENT_SET_NO":999,"REV_AT_EPOCH":6861,"BSTAR":6.0694e-5,"MEAN_MOTION_DOT":1.438e-5,"MEAN_MOTION_DDOT":0},{"OBJECT_NAME":"STARLINK-31826","OBJECT_ID":"2024-091R","EPOCH":"2025-07-29T15:27:55.983744","MEAN_MOTION":15.30194241,"ECCENTRICITY":0.0001325,"INCLINATION":53.1614,"RA_OF_ASC_NODE":343.0183,"ARG_OF_PERICENTER":73.3098,"MEAN_ANOMALY":286.8049,"EPHEMERIS_TYPE":0,"CLASSIFICATION_TYPE":"U","NORAD_CAT_ID":59768,"ELEMENT_SET_NO":999,"REV_AT_EPOCH":6885,"BSTAR":3.6647e-5,"MEAN_MOTION_DOT":7.26e-6,"MEAN_MOTION_DDOT":0},{"OBJECT_NAME":"STARLINK-31830","OBJECT_ID":"2024-091S","EPOCH":"2025-07-29T15:32:29.518368","MEAN_MOTION":15.30193461,"ECCENTRICITY":0.0001155,"INCLINATION":53.1617,"RA_OF_ASC_NODE":343.0377,"ARG_OF_PERICENTER":78.1359,"MEAN_ANOMALY":281.9771,"EPHEMERIS_TYPE":0,"CLASSIFICATION_TYPE":"U","NORAD_CAT_ID":59769,"ELEMENT_SET_NO":999,"REV_AT_EPOCH":6885,"BSTAR":9.1148e-5,"MEAN_MOTION_DOT":2.341e-5,"MEAN_MOTION_DDOT":0},{"OBJECT_NAME":"STARLINK-31829","OBJECT_ID":"2024-091T","EPOCH":"2025-07-30T02:17:12.674976","MEAN_MOTION":15.30176305,"ECCENTRICITY":0.0001378,"INCLINATION":53.1619,"RA_OF_ASC_NODE":340.858,"ARG_OF_PERICENTER":85.5581,"MEAN_ANOMALY":274.5577,"EPHEMERIS_TYPE":0,"CLASSIFICATION_TYPE":"U","NORAD_CAT_ID":59770,"ELEMENT_SET_NO":999,"REV_AT_EPOCH":6868,"BSTAR":-3.9498e-5,"MEAN_MOTION_DOT":-1.528e-5,"MEAN_MOTION_DDOT":0},{"OBJECT_NAME":"STARLINK-31786","OBJECT_ID":"2024-091U","EPOCH":"2025-07-29T15:38:34.426176","MEAN_MOTION":15.30190814,"ECCENTRICITY":0.0001293,"INCLINATION":53.1612,"RA_OF_ASC_NODE":343.0622,"ARG_OF_PERICENTER":72.2936,"MEAN_ANOMALY":287.8206,"EPHEMERIS_TYPE":0,"CLASSIFICATION_TYPE":"U","NORAD_CAT_ID":59771,"ELEMENT_SET_NO":999,"REV_AT_EPOCH":6885,"BSTAR":3.6186e-5,"MEAN_MOTION_DOT":7.12e-6,"MEAN_MOTION_DDOT":0}]
