STARLINK-11131 [DTC]    
1 59756U 24091D   25211.18125344  .00000231  00000+0  67687-5 0  9991
2 59756  53.1588 223.3164 0001154  83.3863 276.7286 15.69708294 70586
STARLINK-11114 [DTC]    
1 59757U 24091E   25210.34865278 -.00000465  00000+0  10300-5 0  9996
2 59757  53.1592 227.3842 0001678  51.2757 308.8411 15.69704669 70439
STARLINK-11105 [DTC]    
1 59758U 24091F   25211.23510038 -.00019606  00000+0 -15678-3 0  9996
2 59758  53.1582 222.9535 0000422  81.4709 278.6356 15.69799173 70534
STARLINK-11097 [DTC]    
1 59759U 24091G   25211.23020454  .00000220  00000+0  66770-5 0  9996
2 59759  53.1584 222.9004 0001103  80.7055 279.4088 15.69708336 70588
STARLINK-11098 [DTC]    
1 59760U 24091H   25211.22530279 -.00000004  00000+0  48223-5 0  9992
2 59760  53.1585 222.8693 0001100  87.5490 272.5653 15.69704737 70526
STARLINK-11117 [DTC]    
1 59761U 24091J   25211.22039518 -.00000666  00000+0 -64009-6 0  9999
2 59761  53.1595 222.8362 0001233  85.7380 274.3778 15.69709604 70599
STARLINK-11110 [DTC]    
1 59762U 24091K   25210.76980071 -.00001485  00000+0 -74034-5 0  9995
2 59762  53.1582 225.0012 0001001  92.7845 267.3288 15.69710959 70504
STARLINK-11104 [DTC]    
1 59763U 24091L   25211.21058115  .00000189  00000+0  64175-5 0  9995
2 59763  53.1600 222.7698 0001282  86.9507 273.1658 15.69707445 70581
STARLINK-11111 [DTC]    
1 59764U 24091M   25210.75508903  .00000334  00000+0  76207-5 0  9990
2 59764  53.1600 224.9026 0001515  75.9780 284.1407 15.69705024 70508
STARLINK-11106 [DTC]    
1 59765U 24091N   25211.20567703  .00000512  00000+0  90829-5 0  9999
2 59765  53.1593 222.7376 0001207  91.3577 268.7579 15.69709302 70598
STARLINK-31739          
1 59766U 24091P   25211.08303545  .00000132  00000+0  16608-4 0  9998
2 59766  53.1631 337.9485 0001411 102.4496 257.6662 15.30183820 68915
STARLINK-31828          
1 59767U 24091Q   25210.64123072  .00001438  00000+0  60694-4 0  9999
2 59767  53.1617 342.9949 0001279  82.1063 278.0083 15.30192032 68613
STARLINK-31826          
1 59768U 24091R   25210.64439796  .00000726  00000+0  36647-4 0  9993
2 59768  53.1614 343.0183 0001325  73.3098 286.8049 15.30194241 68854
STARLINK-31830          
1 59769U 24091S   25210.64756387  .00002341  00000+0  91148-4 0  9994
2 59769  53.1617 343.0377 0001155  78.1359 281.9771 15.30193461 68858
STARLINK-31829          
1 59770U 24091T   25211.09528559 -.00001528  00000+0 -39498-4 0  9992
2 59770  53.1619 340.8580 0001378  85.5581 274.5577 15.30176305 68680
STARLINK-31786          
1 59771U 24091U   25210.65178734  .00000712  00000+0  36186-4 0  9993
2 59771  53.1612 343.0622 0001293  72.2936 287.8206 15.30190814 68855
